STARLINK-11618 [DTC]    
1 63185U 25048C   25235.81969205  .00176720  00000+0  13434-2 0  9998
2 63185  42.9987  72.3890 0001624 246.0790 113.9908 15.70985002 27393
STARLINK-11646 [DTC]    
1 63186U 25048D   25236.57207492  .00203706  00000+0  15408-2 0  9994
2 63186  42.9993  67.7030 0002811 301.6601  58.3992 15.71017969 27522
STARLINK-11622 [DTC]    
1 63187U 25048E   25236.56158040  .00171969  00000+0  13084-2 0  9991
2 63187  43.0000  68.5117 0002312 190.2191 169.8630 15.70979460 27519
STARLINK-11642 [DTC]    
1 63188U 25048F   25236.54034613  .00167638  00000+0  12783-2 0  9992
2 63188  42.9955  68.3431 0000651 290.4643  69.6155 15.70941644 27515
STARLINK-11639 [DTC]    
1 63189U 25048G   25236.59331047  .00172115  00000+0  13101-2 0  9990
2 63189  43.0008  67.8730 0005267 289.3393  70.6905 15.70957063 27528
STARLINK-11637 [DTC]    
1 63190U 25048H   25236.56249426  .00235397  00000+0  17770-2 0  9996
2 63190  42.9987  68.5201 0001900 250.2060 109.8603 15.70967879 27518
STARLINK-11647 [DTC]    
1 63191U 25048J   25236.58799922  .00301930  00000+0  22563-2 0  9993
2 63191  42.9997  67.8268 0002556 253.5990 106.4597 15.71005310 27521
STARLINK-11643 [DTC]    
1 63192U 25048K   25236.59861833  .00264685  00000+0  19879-2 0  9997
2 63192  42.9988  67.9140 0002555 254.0871 105.9715 15.70999172 27528
STARLINK-11635 [DTC]    
1 63193U 25048L   25236.57738366  .00172656  00000+0  13161-2 0  9994
2 63193  43.0027  67.7440 0003320 273.7373  86.3115 15.70930124 27520
STARLINK-11636 [DTC]    
1 63194U 25048M   25235.97340299  .00153692  00000+0  11772-2 0  9997
2 63194  42.9999  71.8335 0002193 274.3252  85.7365 15.70879924 27425
STARLINK-11631 [DTC]    
1 63195U 25048N   25236.56689283  .00162049  00000+0  12419-2 0  9998
2 63195  42.9993  68.5536 0002103 289.7424  70.3217 15.70839037 27515
STARLINK-32946          
1 63196U 25048P   25236.40076804  .00013658  00000+0  50481-3 0  9994
2 63196  42.9984 123.5070 0001377 260.3432  99.7265 15.27588039 26878
STARLINK-32960          
1 63197U 25048Q   25235.72168383  .00028338  00000+0  10349-2 0  9992
2 63197  42.9985 123.4960 0001556 283.4579  76.6099 15.27595065 26814
STARLINK-32904          
1 63198U 25048R   25236.40238126  .00009681  00000+0  36071-3 0  9993
2 63198  43.0042 119.1428 0001476 274.2256  85.8427 15.27594053 26928
STARLINK-32931          
1 63199U 25048S   25236.36141556  .00025923  00000+0  94795-3 0  9993
2 63199  42.9961 119.6998 0000820 323.9117  36.1679 15.27590429 26914
STARLINK-32934          
1 63200U 25048T   25236.08187287  .00016302  00000+0  60021-3 0  9992
2 63200  43.0020 121.0411 0001669 273.1985  86.8676 15.27602893 26876
