[{"OBJECT_NAME":"STARLINK-11618 [DTC]","OBJECT_ID":"2025-048C","EPOCH":"2025-08-23T19:40:21.393120","MEAN_MOTION":15.70985002,"ECCENTRICITY":0.00016241,"INCLINATION":42.9987,"RA_OF_ASC_NODE":72.389,"ARG_OF_PERICENTER":246.079,"MEAN_ANOMALY":113.9908,"EPHEMERIS_TYPE":0,"CLASSIFICATION_TYPE":"U","NORAD_CAT_ID":63185,"ELEMENT_SET_NO":999,"REV_AT_EPOCH":2739,"BSTAR":0.0013434269,"MEAN_MOTION_DOT":0.0017672,"MEAN_MOTION_DDOT":0},{"OBJECT_NAME":"STARLINK-11646 [DTC]","OBJECT_ID":"2025-048D","EPOCH":"2025-08-24T13:43:47.273088","MEAN_MOTION":15.71017969,"ECCENTRICITY":0.00028115,"INCLINATION":42.9993,"RA_OF_ASC_NODE":67.703,"ARG_OF_PERICENTER":301.6601,"MEAN_ANOMALY":58.3992,"EPHEMERIS_TYPE":0,"CLASSIFICATION_TYPE":"U","NORAD_CAT_ID":63186,"ELEMENT_SET_NO":999,"REV_AT_EPOCH":2752,"BSTAR":0.0015407653,"MEAN_MOTION_DOT":0.00203706,"MEAN_MOTION_DDOT":0},{"OBJECT_NAME":"STARLINK-11622 [DTC]","OBJECT_ID":"2025-048E","EPOCH":"2025-08-24T13:28:40.546560","MEAN_MOTION":15.7097946,"ECCENTRICITY":0.00023129,"INCLINATION":43,"RA_OF_ASC_NODE":68.5117,"ARG_OF_PERICENTER":190.2191,"MEAN_ANOMALY":169.863,"EPHEMERIS_TYPE":0,"CLASSIFICATION_TYPE":"U","NORAD_CAT_ID":63187,"ELEMENT_SET_NO":999,"REV_AT_EPOCH":2751,"BSTAR":0.0013084138,"MEAN_MOTION_DOT":0.00171969,"MEAN_MOTION_DDOT":0},{"OBJECT_NAME":"STARLINK-11642 [DTC]","OBJECT_ID":"2025-048F","EPOCH":"2025-08-24T12:58:05.905632","MEAN_MOTION":15.70941644,"ECCENTRICITY":6.513e-5,"INCLINATION":42.9955,"RA_OF_ASC_NODE":68.3431,"ARG_OF_PERICENTER":290.4643,"MEAN_ANOMALY":69.6155,"EPHEMERIS_TYPE":0,"CLASSIFICATION_TYPE":"U","NORAD_CAT_ID":63188,"ELEMENT_SET_NO":999,"REV_AT_EPOCH":2751,"BSTAR":0.0012782941,"MEAN_MOTION_DOT":0.00167638,"MEAN_MOTION_DDOT":0},{"OBJECT_NAME":"STARLINK-11639 [DTC]","OBJECT_ID":"2025-048G","EPOCH":"2025-08-24T14:14:22.024608","MEAN_MOTION":15.70957063,"ECCENTRICITY":0.00052675,"INCLINATION":43.0008,"RA_OF_ASC_NODE":67.873,"ARG_OF_PERICENTER":289.3393,"MEAN_ANOMALY":70.6905,"EPHEMERIS_TYPE":0,"CLASSIFICATION_TYPE":"U","NORAD_CAT_ID":63189,"ELEMENT_SET_NO":999,"REV_AT_EPOCH":2752,"BSTAR":0.0013100913,"MEAN_MOTION_DOT":0.00172115,"MEAN_MOTION_DDOT":0},{"OBJECT_NAME":"STARLINK-11637 [DTC]","OBJECT_ID":"2025-048H","EPOCH":"2025-08-24T13:29:59.504064","MEAN_MOTION":15.70967879,"ECCENTRICITY":0.00019008,"INCLINATION":42.9987,"RA_OF_ASC_NODE":68.5201,"ARG_OF_PERICENTER":250.206,"MEAN_ANOMALY":109.8603,"EPHEMERIS_TYPE":0,"CLASSIFICATION_TYPE":"U","NORAD_CAT_ID":63190,"ELEMENT_SET_NO":999,"REV_AT_EPOCH":2751,"BSTAR":0.0017769519,"MEAN_MOTION_DOT":0.00235397,"MEAN_MOTION_DDOT":0},{"OBJECT_NAME":"STARLINK-11647 [DTC]","OBJECT_ID":"2025-048J","EPOCH":"2025-08-24T14:06:43.132608","MEAN_MOTION":15.7100531,"ECCENTRICITY":0.00025561,"INCLINATION":42.9997,"RA_OF_ASC_NODE":67.8268,"ARG_OF_PERICENTER":253.599,"MEAN_ANOMALY":106.4597,"EPHEMERIS_TYPE":0,"CLASSIFICATION_TYPE":"U","NORAD_CAT_ID":63191,"ELEMENT_SET_NO":999,"REV_AT_EPOCH":2752,"BSTAR":0.002256325,"MEAN_MOTION_DOT":0.0030193,"MEAN_MOTION_DDOT":0},{"OBJECT_NAME":"STARLINK-11643 [DTC]","OBJECT_ID":"2025-048K","EPOCH":"2025-08-24T14:22:00.623712","MEAN_MOTION":15.70999172,"ECCENTRICITY":0.0002555,"INCLINATION":42.9988,"RA_OF_ASC_NODE":67.914,"ARG_OF_PERICENTER":254.0871,"MEAN_ANOMALY":105.9715,"EPHEMERIS_TYPE":0,"CLASSIFICATION_TYPE":"U","NORAD_CAT_ID":63192,"ELEMENT_SET_NO":999,"REV_AT_EPOCH":2752,"BSTAR":0.0019878716,"MEAN_MOTION_DOT":0.00264685,"MEAN_MOTION_DDOT":0},{"OBJECT_NAME":"STARLINK-11635 [DTC]","OBJECT_ID":"2025-048L","EPOCH":"2025-08-24T13:51:25.948224","MEAN_MOTION":15.70930124,"ECCENTRICITY":0.00033207,"INCLINATION":43.0027,"RA_OF_ASC_NODE":67.744,"ARG_OF_PERICENTER":273.7373,"MEAN_ANOMALY":86.3115,"EPHEMERIS_TYPE":0,"CLASSIFICATION_TYPE":"U","NORAD_CAT_ID":63193,"ELEMENT_SET_NO":999,"REV_AT_EPOCH":2752,"BSTAR":0.001316103,"MEAN_MOTION_DOT":0.00172656,"MEAN_MOTION_DDOT":0},{"OBJECT_NAME":"STARLINK-11636 [DTC]","OBJECT_ID":"2025-048M","EPOCH":"2025-08-23T23:21:42.018336","MEAN_MOTION":15.70879924,"ECCENTRICITY":0.00021933,"INCLINATION":42.9999,"RA_OF_ASC_NODE":71.8335,"ARG_OF_PERICENTER":274.3252,"MEAN_ANOMALY":85.7365,"EPHEMERIS_TYPE":0,"CLASSIFICATION_TYPE":"U","NORAD_CAT_ID":63194,"ELEMENT_SET_NO":999,"REV_AT_EPOCH":2742,"BSTAR":0.0011772163,"MEAN_MOTION_DOT":0.00153692,"MEAN_MOTION_DDOT":0},{"OBJECT_NAME":"STARLINK-11631 [DTC]","OBJECT_ID":"2025-048N","EPOCH":"2025-08-24T13:36:19.540512","MEAN_MOTION":15.70839037,"ECCENTRICITY":0.00021032,"INCLINATION":42.9993,"RA_OF_ASC_NODE":68.5536,"ARG_OF_PERICENTER":289.7424,"MEAN_ANOMALY":70.3217,"EPHEMERIS_TYPE":0,"CLASSIFICATION_TYPE":"U","NORAD_CAT_ID":63195,"ELEMENT_SET_NO":999,"REV_AT_EPOCH":2751,"BSTAR":0.0012419257,"MEAN_MOTION_DOT":0.00162049,"MEAN_MOTION_DDOT":0},{"OBJECT_NAME":"STARLINK-32946","OBJECT_ID":"2025-048P","EPOCH":"2025-08-24T09:37:06.358656","MEAN_MOTION":15.27588039,"ECCENTRICITY":0.00013772,"INCLINATION":42.9984,"RA_OF_ASC_NODE":123.507,"ARG_OF_PERICENTER":260.3432,"MEAN_ANOMALY":99.7265,"EPHEMERIS_TYPE":0,"CLASSIFICATION_TYPE":"U","NORAD_CAT_ID":63196,"ELEMENT_SET_NO":999,"REV_AT_EPOCH":2687,"BSTAR":0.00050480852,"MEAN_MOTION_DOT":0.00013658,"MEAN_MOTION_DDOT":0},{"OBJECT_NAME":"STARLINK-32960","OBJECT_ID":"2025-048Q","EPOCH":"2025-08-23T17:19:13.482912","MEAN_MOTION":15.27595065,"ECCENTRICITY":0.00015567,"INCLINATION":42.9985,"RA_OF_ASC_NODE":123.496,"ARG_OF_PERICENTER":283.4579,"MEAN_ANOMALY":76.6099,"EPHEMERIS_TYPE":0,"CLASSIFICATION_TYPE":"U","NORAD_CAT_ID":63197,"ELEMENT_SET_NO":999,"REV_AT_EPOCH":2681,"BSTAR":0.0010348741,"MEAN_MOTION_DOT":0.00028338,"MEAN_MOTION_DDOT":0},{"OBJECT_NAME":"STARLINK-32904","OBJECT_ID":"2025-048R","EPOCH":"2025-08-24T09:39:25.740864","MEAN_MOTION":15.27594053,"ECCENTRICITY":0.00014765,"INCLINATION":43.0042,"RA_OF_ASC_NODE":119.1428,"ARG_OF_PERICENTER":274.2256,"MEAN_ANOMALY":85.8427,"EPHEMERIS_TYPE":0,"CLASSIFICATION_TYPE":"U","NORAD_CAT_ID":63198,"ELEMENT_SET_NO":999,"REV_AT_EPOCH":2692,"BSTAR":0.00036071336,"MEAN_MOTION_DOT":9.681e-5,"MEAN_MOTION_DDOT":0},{"OBJECT_NAME":"STARLINK-32931","OBJECT_ID":"2025-048S","EPOCH":"2025-08-24T08:40:26.304384","MEAN_MOTION":15.27590429,"ECCENTRICITY":8.205e-5,"INCLINATION":42.9961,"RA_OF_ASC_NODE":119.6998,"ARG_OF_PERICENTER":323.9117,"MEAN_ANOMALY":36.1679,"EPHEMERIS_TYPE":0,"CLASSIFICATION_TYPE":"U","NORAD_CAT_ID":63199,"ELEMENT_SET_NO":999,"REV_AT_EPOCH":2691,"BSTAR":0.00094794946,"MEAN_MOTION_DOT":0.00025923,"MEAN_MOTION_DDOT":0},{"OBJECT_NAME":"STARLINK-32934","OBJECT_ID":"2025-048T","EPOCH":"2025-08-24T01:57:53.815968","MEAN_MOTION":15.27602893,"ECCENTRICITY":0.00016696,"INCLINATION":43.002,"RA_OF_ASC_NODE":121.0411,"ARG_OF_PERICENTER":273.1985,"MEAN_ANOMALY":86.8676,"EPHEMERIS_TYPE":0,"CLASSIFICATION_TYPE":"U","NORAD_CAT_ID":63200,"ELEMENT_SET_NO":999,"REV_AT_EPOCH":2687,"BSTAR":0.00060020611,"MEAN_MOTION_DOT":0.00016302,"MEAN_MOTION_DDOT":0}]
